#dP2022  4 23  0  0  0.00000000      96 __u+U ITR14 FIT  IAC
## 2206 518400.00000000   900.00000000 59692 0.0000000000000
+  126   C01C02C03C04C05C06C07C08C09C10C11C12C13C14C16C19C20
+        C21C22C23C24C25C26C27C28C29C30C32C33C34C35C36C37C38
+        C39C40C41C42C43C44C45C46C60E01E02E03E04E05E07E08E09
+        E10E11E12E13E14E15E18E19E21E24E25E26E27E30E31E33E34
+        E36G01G02G03G04G05G06G07G08G09G10G11G12G13G14G15G16
+        G18G19G20G21G22G23G24G25G26G27G28G29G30G31G32J02J03
+        J07R01R02R03R04R05R06R07R08R09R10R11R12R13R14R15R17
+        R18R19R20R21R22R23R24  0  0  0  0  0  0  0  0  0  0
++        16 15 15 15 18  9  9 10  9  9  9  9  9  9  9  8  8
++         7  8  7  7  7  7  7  7  7  7  8  7  7  7  8  8  8
++         8  8  7  7  7  8  7  8 15  4  4  6  5  6  4  5  5
++         5  4  4  5  4  5  5  4  4  5  4  4  4  5  6  4  6
++         5  4  4  4  4  4  4  4  4  4  4  4  4  4  4  4  4
++         4  4  4  5  4  4  4  4  4  4  5  4  4  4  4  8  9
++         0  7  6  6  6  6 13  6  6  6 13  8  6  7  6  6  6
++         6  7  7  6  7 13  7  0  0  0  0  0  0  0  0  0  0
%c M  cc GPS ccc cccc cccc cccc cccc ccccc ccccc ccccc ccccc
%c cc cc ccc ccc cccc cccc cccc cccc ccccc ccccc ccccc ccccc
%f  0.0000000  0.000000000  0.00000000000  0.000000000000000
%f  0.0000000  0.000000000  0.00000000000  0.000000000000000
%i    0    0    0    0      0      0      0      0         0
%i    0    0    0    0      0      0      0      0         0
/* INFORMATION & ANALYSIS CENTER (IAC)            RAPID DATA
/* S/V CLOCKS ARE ALIGNED TO GNSS TIME                      
/* G:C1WC2W R:C1PC2P E:C1XC5X C:C2IC6I J:C1CC2S             
/* PCV:IGS14_2196 OL/AL:FES2004  NONE     YN ORB:CoN CLK:CoN
*  2022 04 23 21 15  0.00000000
PC01 -34371.811185  24432.978965   -461.788637    116.352553
PC02   4528.655541  41951.933606    240.348630     96.836755
PC03 -14775.250281  39520.641105   -719.733351   -561.676761
PC04 -39608.580010  14461.707190   -522.601434    153.982458
PC05  21934.526612  36083.556649    307.125370   -410.954114
PC06 -10793.488728  23155.011944  33535.542298   -148.810079
PC07 -15949.651562  38601.078368  -6354.835821    -77.977830
PC08   -154.930480  33391.769840 -25649.215343    275.715778
PC09    792.638076  24934.359024  34382.220832   -723.876936
PC10  -9722.462376  39115.773674 -12928.075914    135.183177
PC11 -27213.310911   1639.995390  -5960.565411    310.078973
PC12 -23742.269667  -9254.256624  11415.647290   -625.123670
PC13   6455.607502  37308.597939 -18122.784981    -52.270717
PC14 -20137.296593  10231.813152 -16399.267008    462.011083
PC16 -13512.449683  22091.159113  33399.136003    123.223725
PC19  19044.700451 -18473.254660   8643.493211    875.760678
PC20  18419.519226  -2030.382515  20875.635762   -888.502812
PC21  -6659.470809 -16681.943044 -21326.392052   -166.023214
PC22   8672.996636 -24876.624043  -9148.229122   -970.582279
PC23    598.290243  23997.465292  14231.244980   -931.438208
PC24 -19192.866947 -10724.365478  17188.245075   -956.357324
PC25 -12511.805765  10769.033752  22489.397537   -746.679847
PC26 -14954.742941 -23377.841658   3091.398294    747.566456
PC27  16633.371448  13550.491507 -17879.010693    712.481317
PC28  -3660.547892  15593.355646 -22852.739495     58.756861
PC29  22134.046063  -9227.669489  14266.704490    545.373216
PC30  27568.450550   3069.412236  -3189.652317    497.418643
PC32   6767.969101  16703.431697  21331.575065   -962.773570
PC33 -18953.228451  18578.271973  -8645.713158   -966.712420
PC34 -27697.318784  -2447.031694   2181.081602   -418.931397
PC35   4265.188643 -15668.030342  22686.467409    242.469001
PC36  13048.187951  -9974.606815 -22539.705097   -963.880325
PC37  13782.118257  24169.976224  -1988.119662   -919.757225
PC38  -6726.705131  29478.653808 -29295.635413    227.258409
PC39 -19829.391313  20882.985677  30767.807712     34.951862
PC40 -22701.359972  35388.032660  -4221.432215    263.330549
PC41  -8878.359251  24974.282626   8793.157215   -966.489408
PC42 -18091.360941   1045.970378 -21177.730303   -955.981559
PC43 -22619.752681   8862.119572 -13720.078009   -928.191770
PC44 -16875.459138 -13120.205987  17905.858758    637.411175
PC45   -908.601688 -24091.926755 -14071.437763    739.100028
PC46  19051.432827   9194.893613 -18181.729454   -287.828232
PC60   7284.326537  41520.120134  -1529.611893     -0.676131
PE01   8043.439321  25014.083445 -13625.339218   -622.120680
PE02  -8129.027038 -24929.886837  13744.456664    294.747189
PE03 -10530.597832 -13662.533171 -24050.545844   -551.122548
PE04  25213.881968   -776.421990  15498.506309  -1013.014281
PE05  10662.502811 -20370.561337 -18632.371452   -188.060170
PE07 -25320.765860  15141.170775   2483.910641   -661.589174
PE08 -25307.198516   1219.384512 -15306.883612   -517.395174
PE09  25208.286615 -15276.214353  -2618.212413   -494.539880
PE10  24412.418043   2685.197536  16515.940321   -508.591855
PE11  18163.020967  -5904.940769  22609.374479   3873.175319
PE12  26481.370124  10477.672787   8114.448001   4648.041286
PE13 -18613.650752   5364.587492 -22376.192868    428.224414
PE14  -2294.066735  21467.865184 -23940.724846  -1824.596383
PE15 -26480.085027 -10522.136236  -7991.095977    749.868369
PE18  -7153.581579 -13881.604333  18458.713906  -1529.686693
PE19   7930.599679  14969.428378  24285.740410  -3513.094844
PE21  -3790.731408  29132.390159   3595.776761   -730.188726
PE24  14760.024438 -15554.504253 -20432.182763   -577.275772
PE25   3966.261078 -29082.224875  -3857.181022   -571.467815
PE26   1008.254311  18509.931943 -23077.191132  -1064.821021
PE27 -14243.659277  16782.539820  19783.466112   -283.033666
PE30 -16065.551911  -6567.716735  23967.342032   -454.822943
PE31  16218.816032   5316.971697 -24179.673044   -495.536237
PE33  18703.072139  20128.809722 -11028.460319   -457.326095
PE34 -18882.915191 -20047.207892  10841.664633   -513.578394
PE36   -101.851461 -17971.741196  23516.113868   -363.893761
PG01  22125.996715  13755.042501   5763.722421    378.271411
PG02 -10712.324880 -19833.816818  14582.021070   -653.224847
PG03  13353.420516   8224.428161  21346.643190   -218.423280
PG04  22238.205438   3063.623098  14271.360782   -173.418679
PG05  -6642.662935 -22011.763019 -13328.074130    -79.376219
PG06   4451.963357 -14863.172476  21608.544487    277.579628
PG07  19771.539013    168.860164 -17568.085335    320.965462
PG08  15042.716685   9027.388582 -20082.631825    -65.177330
PG09  25339.777045  -6312.933403   4868.011589   -341.722899
PG10 -11493.308427  20612.954344 -11740.509632   -389.518316
PG11  -9479.816660 -21099.657179  13061.522816    -34.994927
PG12 -11066.248454 -12981.101245  20121.888136   -204.910784
PG13  -5634.700873 -14165.858482 -21909.964227    299.402673
PG14  13071.576673 -19433.164544 -12451.353711   -104.498690
PG15 -16721.200858  -7750.212673 -19638.632514    -66.628955
PG16    864.508856  24375.121539 -10199.845866   -494.567328
PG18 -19504.123444   -472.172517 -18077.655065    188.011452
PG19  13841.279676 -15065.924374  16564.456501    148.288828
PG20  -2044.766730 -26420.808069  -3152.873829    515.687083
PG21  20132.635669  17310.764337  -3797.163069    160.672360
PG22 -10323.622651  16357.033453  18535.306229    248.087814
PG23 -14841.222516  10699.073227 -19227.064317    -17.131988
PG24 -22329.678295 -14737.735160   1003.747220    252.309940
PG25 -15474.111355   2514.900003  21116.570317    315.856047
PG26  -4422.863762  25928.769039   2070.224049    200.783281
PG27   2361.013537  15070.054967 -21920.024829    189.803907
PG28   9172.400335 -24701.322639  -3692.783610    368.106461
PG29 -25732.286482   3514.576937   5669.847456   -506.312104
PG30  13614.157542  -8719.342641 -21025.608635   -525.082247
PG31  -2769.516807  16593.100703  20313.507843   -174.704400
PG32 -16836.689435  16056.658515  12777.786736   -111.820948
PJ02 -27353.675010  26700.504114  22639.824730     -2.954554
PJ03 -30729.277636  16187.910898 -19278.634568     -1.712196
PJ07      0.000000      0.000000      0.000000 999999.999999
PR01 -18843.214791  11620.921178 -12677.784454      8.058598
PR02 -14621.878089  19724.203939   6850.451192    516.413646
PR03  -1406.087937  15423.563841  20301.581560     55.449299
PR04  12114.060066   2499.869217  22343.234940    138.171353
PR05  19201.958268 -11697.388906  12084.407587     91.681435
PR06  13402.533108 -20296.429338  -7723.952327    -44.718098
PR07    926.663847 -15059.335339 -20536.266784     34.218046
PR08 -12259.789726  -2404.478727 -22172.551698    -64.760565
PR09   1996.081749 -19794.330785 -15904.349675     51.373846
PR10  -6974.779915 -24544.492893  -1275.822400    -81.752356
PR11 -12643.010626 -15601.011647  15729.699859     40.496957
PR12 -10489.855582   3337.715538  23032.440398     18.072868
PR13  -2563.549458  18946.774374  16866.895012    -21.317570
PR14   7502.775921  24388.084968   -220.763699     76.841442
PR15  12610.430657  15054.262475 -16263.999480     96.616629
PR17  10137.148856  11933.285543 -20122.335161    520.107718
PR18  22824.495647   9087.203749  -6965.348506    114.553725
PR19  23785.743241   2726.579362   8802.776056   -186.490586
PR20   9654.580077  -7544.986061  22383.912003    -69.218641
PR21 -11594.890580 -11923.269652  19343.687680   -295.709873
PR22 -23043.612948  -8897.901376   6127.659520   -178.789441
PR23 -21323.500238    843.822314 -13977.430435    -38.234824
PR24  -8841.212195   8500.455166 -22354.427409     90.488971
EOF
